[{"OBJECT_NAME":"OBJECT BE","OBJECT_ID":"2024-199BE","EPOCH":"2026-03-09T22:35:11.240448","MEAN_MOTION":15.34583634,"ECCENTRICITY":0.00126202,"INCLINATION":97.3163,"RA_OF_ASC_NODE":298.7137,"ARG_OF_PERICENTER":307.7021,"MEAN_ANOMALY":52.3078,"EPHEMERIS_TYPE":0,"CLASSIFICATION_TYPE":"U","NORAD_CAT_ID":61787,"ELEMENT_SET_NO":999,"REV_AT_EPOCH":12186,"BSTAR":0.00035348262,"MEAN_MOTION_DOT":0.00011799,"MEAN_MOTION_DDOT":0},{"OBJECT_NAME":"STARLINK-35804","OBJECT_ID":"2025-254Z","EPOCH":"2026-03-09T17:26:54.322368","MEAN_MOTION":15.30201326,"ECCENTRICITY":7.677e-5,"INCLINATION":53.1583,"RA_OF_ASC_NODE":229.9483,"ARG_OF_PERICENTER":89.8695,"MEAN_ANOMALY":270.2393,"EPHEMERIS_TYPE":0,"CLASSIFICATION_TYPE":"U","NORAD_CAT_ID":66371,"ELEMENT_SET_NO":999,"REV_AT_EPOCH":1901,"BSTAR":0.0010158194,"MEAN_MOTION_DOT":0.00029849,"MEAN_MOTION_DDOT":0}]
